OBJECT_NAME,OBJECT_ID,EPOCH,MEAN_MOTION,ECCENTRICITY,INCLINATION,RA_OF_ASC_NODE,ARG_OF_PERICENTER,MEAN_ANOMALY,EPHEMERIS_TYPE,CLASSIFICATION_TYPE,NORAD_CAT_ID,ELEMENT_SET_NO,REV_AT_EPOCH,BSTAR,MEAN_MOTION_DOT,MEAN_MOTION_DDOT
CBERS 4A,2019-093E,2026-06-15T04:45:59.950656,14.81791230,.00019989,98.0129,233.6361,354.8536,5.2656,0,U,44883,999,35078,.97114071E-4,.713E-5,0
WEILAI 1R,2019-093F,2026-06-15T14:06:11.999232,15.00635907,.00179638,97.7862,256.4706,41.0988,319.1585,0,U,44884,999,35218,.39363473E-3,.4933E-4,0
FLORIPASAT-1,2019-093G,2026-06-15T13:29:20.385600,15.03860062,.00128451,97.7916,260.7809,77.2232,283.0428,0,U,44885,999,35240,.39775136E-3,.5422E-4,0
SHUNTIAN,2019-093H,2026-06-15T14:26:44.056320,14.95157790,.00133499,97.8022,254.7701,73.3597,286.9088,0,U,44886,999,35194,.32610075E-3,.3528E-4,0
ELEKTRO-L 3,2019-095A,2026-06-15T11:42:41.262912,1.00271449,.00009498,0.2519,81.5030,352.2937,81.6023,0,U,44903,999,2369,0,-.94E-6,0
GONETS-M 14,2019-096A,2026-06-15T14:22:52.550976,12.42869784,.00134356,82.5240,85.6252,151.2980,208.8841,0,U,44905,999,29348,.21928872E-3,.4E-6,0
GONETS-M 15,2019-096B,2026-06-15T15:05:12.862176,12.42871108,.00148207,82.5260,86.0682,174.8257,185.2979,0,U,44906,999,29345,-.29826742E-3,-.31E-6,0
GONETS-M 16,2019-096C,2026-06-15T13:47:05.206848,12.42891539,.00097549,82.5206,85.0550,218.4944,141.5441,0,U,44907,999,29343,.6988704E-4,.2E-6,0
RS-44 & BREEZE-KM R/B,2019-096E,2026-06-15T14:21:00.948096,12.79748870,.02181092,82.5218,340.7612,147.8718,213.5894,0,U,44909,999,30214,-.9040071E-5,.1E-6,0
JILIN-1 KUANFU 01,2020-003A,2026-06-15T13:31:19.411104,15.10715890,.0008473,97.5032,240.5502,314.0745,45.9787,0,U,45016,999,35508,.17258948E-3,.2798E-4,0
XINGYUN-2 01,2020-028A,2026-06-15T14:52:21.631584,15.11800160,.00081791,97.4859,159.0508,198.1115,161.9825,0,U,45602,999,33460,.67817524E-4,.1095E-4,0
XINGYUN-2 02,2020-028B,2026-06-15T14:21:10.065888,15.11533663,.0009095,97.5065,172.6168,280.2334,79.7870,0,U,45603,999,33459,.11056925E-3,.1811E-4,0
HAIYANG-1D,2020-036A,2026-06-15T13:51:59.336640,14.34172526,.00032991,98.4557,108.2926,131.2869,228.8601,0,U,45721,999,31474,.2994612E-4,.41E-6,0
M2 PATHFINDER,2020-037E,2026-06-15T12:24:58.099968,15.04671269,.00123952,97.8148,357.7305,151.1076,209.0839,0,U,45727,999,32524,.13067843E-3,.1776E-4,0
GAOFEN DUOMO (GFDM),2020-042A,2026-06-15T13:57:12.548736,14.76877991,.00124744,97.7753,226.5258,79.0847,281.1766,0,U,45856,999,32077,.85177273E-4,.55E-5,0
ZIYUAN 3-03 (ZY 3-03),2020-051A,2026-06-15T14:32:05.256096,15.21520930,.00033464,97.2841,234.3835,328.5729,31.5307,0,U,45939,999,32710,.15775739E-3,.3484E-4,0
NEMO-HD,2020-061F,2026-06-15T15:21:10.657152,15.44567043,.00023611,97.1922,228.6081,82.8363,277.3154,0,U,46277,999,32174,.20064938E-3,.9236E-4,0
NAPA-1,2020-061BA,2026-06-15T15:08:34.876608,15.67806102,.00013278,97.2471,240.7595,171.1897,188.9388,0,U,46320,999,32149,.58527554E-3,.64468E-3,0
JILIN-1 GAOFEN 3E,2020-065D,2026-06-15T13:23:29.738976,15.63456018,.00127376,97.2247,219.1295,161.9532,198.2182,0,U,46457,999,31950,.62178455E-3,.5779E-3,0
JILIN-1 GAOFEN 3F,2020-065E,2026-06-15T13:55:22.441440,15.60762046,.0014362,97.2203,216.4951,151.2399,208.9654,0,U,46458,999,31945,.53335542E-3,.44624E-3,0
JILIN-1 GAOFEN 3G,2020-065F,2026-06-15T13:19:55.585344,15.70958337,.00086555,97.2269,223.2469,70.1025,290.1170,0,U,46459,999,31968,.66692793E-3,.83996E-3,0
JILIN-1 GAOFEN 3H,2020-065G,2026-06-15T14:05:49.625088,15.67578086,.00036977,97.2215,219.6177,359.7902,0.3357,0,U,46460,999,31963,.60274633E-3,.65814E-3,0
HAIYANG-2C,2020-066A,2026-06-15T13:48:25.978752,13.83375712,.00089836,65.9968,219.2974,238.0820,121.9375,0,U,46469,999,28927,.16638241E-3,.102E-5,0
HJ-2A,2020-067A,2026-06-15T14:33:24.255072,14.76515946,.00023469,97.8835,245.0163,276.4947,83.5995,0,U,46478,999,30802,.12749944E-3,.839E-5,0
HJ-2B,2020-067B,2026-06-15T15:26:35.117664,14.76556786,.00012319,97.8898,246.0726,96.1253,264.0097,0,U,46479,999,30803,.10989673E-3,.717E-5,0
GONETS-M 17,2020-068A,2026-06-15T14:23:13.990272,12.42873098,.00231511,82.4984,348.4909,40.8072,319.4736,0,U,46486,999,25896,-.12026505E-3,-.7E-7,0
GONETS-M 18,2020-068B,2026-06-15T13:30:53.921376,12.42873612,.00204045,82.4937,347.6319,37.6065,322.6437,0,U,46487,999,25894,.35305382E-3,.59E-6,0
