CBERS 4A                
1 44883U 19093E   26166.19861054  .00000713  00000+0  97114-4 0  9990
2 44883  98.0129 233.6361 0001998 354.8536   5.2656 14.81791230350786
WEILAI 1R               
1 44884U 19093F   26166.58763888  .00004933  00000+0  39363-3 0  9999
2 44884  97.7862 256.4706 0017963  41.0988 319.1585 15.00635907352182
FLORIPASAT-1            
1 44885U 19093G   26166.56204150  .00005422  00000+0  39775-3 0  9991
2 44885  97.7916 260.7809 0012845  77.2232 283.0428 15.03860062352407
SHUNTIAN                
1 44886U 19093H   26166.60189880  .00003528  00000+0  32610-3 0  9995
2 44886  97.8022 254.7701 0013349  73.3597 286.9088 14.95157790351941
ELEKTRO-L 3             
1 44903U 19095A   26166.48797758 -.00000094  00000+0  00000+0 0  9992
2 44903   0.2519  81.5030 0000949 352.2937  81.6023  1.00271449 23697
GONETS-M 14             
1 44905U 19096A   26166.59921934  .00000040  00000+0  21929-3 0  9999
2 44905  82.5240  85.6252 0013435 151.2980 208.8841 12.42869784293483
GONETS-M 15             
1 44906U 19096B   26166.62862109 -.00000031  00000+0 -29827-3 0  9999
2 44906  82.5260  86.0682 0014820 174.8257 185.2979 12.42871108293455
GONETS-M 16             
1 44907U 19096C   26166.57436582  .00000020  00000+0  69887-4 0  9993
2 44907  82.5206  85.0550 0009754 218.4944 141.5441 12.42891539293434
RS-44 & BREEZE-KM R/B   
1 44909U 19096E   26166.59792764  .00000010  00000+0 -90401-5 0  9991
2 44909  82.5218 340.7612 0218109 147.8718 213.5894 12.79748870302149
JILIN-1 KUANFU 01       
1 45016U 20003A   26166.56341911  .00002798  00000+0  17259-3 0  9994
2 45016  97.5032 240.5502 0008473 314.0745  45.9787 15.10715890355086
XINGYUN-2 01            
1 45602U 20028A   26166.61969481  .00001095  00000+0  67818-4 0  9992
2 45602  97.4859 159.0508 0008179 198.1115 161.9825 15.11800160334601
XINGYUN-2 02            
1 45603U 20028B   26166.59803317  .00001811  00000+0  11057-3 0  9994
2 45603  97.5065 172.6168 0009095 280.2334  79.7870 15.11533663334594
HAIYANG-1D              
1 45721U 20036A   26166.57777010  .00000041  00000+0  29946-4 0  9993
2 45721  98.4557 108.2926 0003299 131.2869 228.8601 14.34172526314741
M2 PATHFINDER           
1 45727U 20037E   26166.51733912  .00001776  00000+0  13068-3 0  9990
2 45727  97.8148 357.7305 0012395 151.1076 209.0839 15.04671269325243
GAOFEN DUOMO (GFDM)     
1 45856U 20042A   26166.58139524  .00000550  00000+0  85177-4 0  9995
2 45856  97.7753 226.5258 0012474  79.0847 281.1766 14.76877991320770
ZIYUAN 3-03 (ZY 3-03)   
1 45939U 20051A   26166.60561639  .00003484  00000+0  15776-3 0  9992
2 45939  97.2841 234.3835 0003346 328.5729  31.5307 15.21520930327103
NEMO-HD                 
1 46277U 20061F   26166.63970668  .00009236  00000+0  20065-3 0  9996
2 46277  97.1922 228.6081 0002361  82.8363 277.3154 15.44567043321742
NAPA-1                  
1 46320U 20061BA  26166.63095922  .00064468  00000+0  58528-3 0  9999
2 46320  97.2471 240.7595 0001327 171.1897 188.9388 15.67806102321496
JILIN-1 GAOFEN 3E       
1 46457U 20065D   26166.55798309  .00057790  00000+0  62178-3 0  9990
2 46457  97.2247 219.1295 0012737 161.9532 198.2182 15.63456018319503
JILIN-1 GAOFEN 3F       
1 46458U 20065E   26166.58012085  .00044624  00000+0  53336-3 0  9992
2 46458  97.2203 216.4951 0014362 151.2399 208.9654 15.60762046319459
JILIN-1 GAOFEN 3G       
1 46459U 20065F   26166.55550446  .00083996  00000+0  66693-3 0  9993
2 46459  97.2269 223.2469 0008655  70.1025 290.1170 15.70958337319687
JILIN-1 GAOFEN 3H       
1 46460U 20065G   26166.58737992  .00065814  00000+0  60275-3 0  9990
2 46460  97.2215 219.6177 0003697 359.7902   0.3357 15.67578086319634
HAIYANG-2C              
1 46469U 20066A   26166.57530068  .00000102  00000+0  16638-3 0  9997
2 46469  65.9968 219.2974 0008983 238.0820 121.9375 13.83375712289275
HJ-2A                   
1 46478U 20067A   26166.60653073  .00000839  00000+0  12750-3 0  9992
2 46478  97.8835 245.0163 0002346 276.4947  83.5995 14.76515946308026
HJ-2B                   
1 46479U 20067B   26166.64346201  .00000717  00000+0  10990-3 0  9998
2 46479  97.8898 246.0726 0001231  96.1253 264.0097 14.76556786308038
GONETS-M 17             
1 46486U 20068A   26166.59946748 -.00000007  00000+0 -12027-3 0  9990
2 46486  82.4984 348.4909 0023151  40.8072 319.4736 12.42873098258962
GONETS-M 18             
1 46487U 20068B   26166.56312409  .00000059  00000+0  35305-3 0  9998
2 46487  82.4937 347.6319 0020404  37.6065 322.6437 12.42873612258945
